{
  "norad_id": 66501,
  "name": "STARLINK-35897",
  "history": [
    {
      "epoch": "2026-03-28T18:01:28.238592Z",
      "apogee_km": 484.0489202787048,
      "perigee_km": 481.91922829724535,
      "latitude_deg": -2.453369449459724e-05,
      "longitude_deg": 146.55783682012554,
      "height_km": 482.4742930884059,
      "semi_major_axis_km": 6861.121074287975,
      "eccentricity": 0.0001552,
      "inclination_deg": 43.0044,
      "raan_deg": 243.0925,
      "arg_perigee_deg": 285.641,
      "mean_anomaly_deg": 74.427,
      "mean_motion_rev_day": 15.27601715
    },
    {
      "epoch": "2026-03-30T02:58:44.743008Z",
      "apogee_km": 484.4705090133457,
      "perigee_km": 481.77773847272056,
      "latitude_deg": 1.4384238431849732e-05,
      "longitude_deg": 3.127313775105954,
      "height_km": 482.8974155710174,
      "semi_major_axis_km": 6861.261123743033,
      "eccentricity": 0.00019623,
      "inclination_deg": 43.0042,
      "raan_deg": 235.3341,
      "arg_perigee_deg": 270.184,
      "mean_anomaly_deg": 89.8787,
      "mean_motion_rev_day": 15.27554944
    },
    {
      "epoch": "2026-03-30T10:49:32.924064Z",
      "apogee_km": 483.92894688208526,
      "perigee_km": 482.31325782414206,
      "latitude_deg": -5.7119423849358205e-06,
      "longitude_deg": -116.7421148905281,
      "height_km": 483.01222152637104,
      "semi_major_axis_km": 6861.258102353113,
      "eccentricity": 0.00011774,
      "inclination_deg": 43.0022,
      "raan_deg": 233.4877,
      "arg_perigee_deg": 261.8601,
      "mean_anomaly_deg": 98.2117,
      "mean_motion_rev_day": 15.27555953
    }
  ]
}